[ {"name": "STARLINK-5772", "line1": "1 56024U 23042AQ  26197.60238039  .00000479  00000+0  26911-4 0  9996", "line2": "2 56024  43.0051  36.9677 0000719 281.2238  78.8532 15.27572411182754"}, {"name": "STARLINK-5766", "line1": "1 56025U 23042AR  26197.97556640  .00000083  00000+0  12528-4 0  9998", "line2": "2 56025  43.0024  35.4617 0000861 291.1982  68.8777 15.27578560182804"}, {"name": "STARLINK-5770", "line1": "1 56026U 23042AS  26197.59466941  .00000220  00000+0  17534-4 0  9996", "line2": "2 56026  43.0040  36.9170 0001127 263.8079  96.2644 15.27576316182740"}, {"name": "STARLINK-5777", "line1": "1 56027U 23042AT  26197.91645757 -.00000971  00000+0 -25743-4 0  9993", "line2": "2 56027  43.0085  35.0259 0003109 249.9441 110.1076 15.27578026182800"}, {"name": "STARLINK-5779", "line1": "1 56028U 23042AU  26197.93958933 -.00000413  00000+0 -54824-5 0  9993", "line2": "2 56028  43.0064  35.1981 0001799 266.2796  93.7850 15.27575386182801"}, {"name": "STARLINK-5774", "line1": "1 56029U 23042AV  26197.86006799 -.00000174  00000+0  32254-5 0  9996", "line2": "2 56029  43.0060  35.4619 0001721 272.5512  87.5142 15.27577699182792"}, {"name": "STARLINK-5781", "line1": "1 56030U 23042AW  26197.87806860 -.00001340  00000+0 -39183-4 0  9990", "line2": "2 56030  43.0061  35.5934 0001831 278.0261  82.0383 15.27566367182797"}, {"name": "STARLINK-5785", "line1": "1 56031U 23042AX  26197.86649503 -.00000181  00000+0  29361-5 0  9998", "line2": "2 56031  43.0052  35.5120 0001453 261.0180  99.0507 15.27575200182799"}, {"name": "STARLINK-5786", "line1": "1 56032U 23042AY  26196.97678162  .00000178  00000+0  15991-4 0  9991", "line2": "2 56032  43.0031  40.8682 0001484 260.4744  99.5940 15.27577956182653"}, {"name": "STARLINK-5782", "line1": "1 56034U 23042BA  26197.57297735 -.00000447  00000+0 -67020-5 0  9995", "line2": "2 56034  43.0047  37.5982 0002008 261.5746  98.4879 15.27573277182746"}, {"name": "STARLINK-5792", "line1": "1 56035U 23042BB  26197.62037123  .00000848  00000+0  40343-4 0  9996", "line2": "2 56035  43.0054  37.0998 0001363 268.2291  91.8405 15.27577267182755"}, {"name": "STARLINK-5790", "line1": "1 56036U 23042BC  26197.89092909 -.00000521  00000+0 -94324-5 0  9998", "line2": "2 56036  42.9994  35.6764 0001345 255.8385 104.2318 15.27567220182792"}, {"name": "STARLINK-5758", "line1": "1 56037U 23042BD  26197.57603963  .00000815  00000+0  39154-4 0  9995", "line2": "2 56037  43.0058  22.8692 0001677 269.6499  90.4160 15.27577547182919"}, {"name": "STARLINK-5793", "line1": "1 56038U 23042BE  26197.97300088  .00000109  00000+0  13498-4 0  9991", "line2": "2 56038  43.0029  35.4370 0001096 242.6856 117.3884 15.27575611182804"}, {"name": "STARLINK-5795", "line1": "1 56039U 23042BF  26197.59402684  .00000361  00000+0  22644-4 0  9998", "line2": "2 56039  43.0031  23.0006 0001388 264.5242  95.5452 15.27573785182913"}, {"name": "STARLINK-5798", "line1": "1 56040U 23042BG  26197.53249220 -.00000202  00000+0  21958-5 0  9992", "line2": "2 56040  43.0025  23.3880 0001360 254.4459 105.6242 15.27577598182904"}, {"name": "STARLINK-5800", "line1": "1 56041U 23042BH  26197.82553700  .00000047  00000+0  11226-4 0  9998", "line2": "2 56041  43.0037  24.6939 0000916 259.3140 100.7609 15.27568160182913"}, {"name": "STARLINK-6109", "line1": "1 56094U 23046B   26197.30453948 -.00000751  00000+0 -17776-4 0  9996", "line2": "2 56094  43.0021 155.0284 0001383 262.2007  97.8688 15.27570974181705"}, {"name": "STARLINK-6090", "line1": "1 56095U 23046C   26197.23144146  .00000936  00000+0  43523-4 0  9998", "line2": "2 56095  43.0023 155.3422 0001248 263.8859  96.1851 15.27574022181697"}, {"name": "STARLINK-6089", "line1": "1 56096U 23046D   26197.96225634 -.00000119  00000+0  52129-5 0  9998", "line2": "2 56096  43.0017 151.3635 0001128 263.6209  96.4514 15.27576450181806"}, {"name": "STARLINK-6077", "line1": "1 56097U 23046E   26197.94637576  .00000098  00000+0  13096-4 0  9993", "line2": "2 56097  43.0036 104.3089 0001578 266.7131  93.3540 15.27576941182346"}, {"name": "STARLINK-6088", "line1": "1 56098U 23046F   26197.23529661  .00000475  00000+0  26774-4 0  9997", "line2": "2 56098  43.0011 155.3729 0001180 260.3857  99.6861 15.27575505181687"}, {"name": "STARLINK-6076", "line1": "1 56100U 23046H   26197.35707363  .00000431  00000+0  25173-4 0  9995", "line2": "2 56100  43.0003 154.5699 0001397 241.6359 118.4352 15.27575072181716"}, {"name": "STARLINK-6095", "line1": "1 56101U 23046J   26197.29554301  .00000308  00000+0  20723-4 0  9990", "line2": "2 56101  43.0025 154.9566 0001194 266.8835  93.1880 15.27575910181706"}, {"name": "STARLINK-6075", "line1": "1 56102U 23046K   26197.89942557  .00003692  00000+0  14349-3 0  9996", "line2": "2 56102  43.0001 151.7435 0000977 209.5304 150.5493 15.27606713181797"}, {"name": "STARLINK-6096", "line1": "1 56103U 23046L   26197.56479808 -.00000185  00000+0  27855-5 0  9998", "line2": "2 56103  42.9999 153.5403 0000516 258.1878 101.8916 15.27578369181741"}, {"name": "STARLINK-6062", "line1": "1 56104U 23046M   26197.23403205  .00000439  00000+0  25490-4 0  9994", "line2": "2 56104  42.9989 155.3571 0000925 290.3565  69.7187 15.27559323181697"}, {"name": "STARLINK-6066", "line1": "1 56105U 23046N   26197.98923582  .00011439  00000+0  42446-3 0  9993", "line2": "2 56105  42.9993 151.5535 0001136 296.0861  63.9874 15.27588867181805"}, {"name": "STARLINK-6030", "line1": "1 56107U 23046Q   26197.99695956  .00001005  00000+0  46077-4 0  9990", "line2": "2 56107  43.0038 151.6112 0001577 285.2699  74.7978 15.27569671181806"}, {"name": "STARLINK-6081", "line1": "1 56108U 23046R   26197.90200826 -.00000185  00000+0  27871-5 0  9991", "line2": "2 56108  43.0014 151.7557 0000830 270.2979  89.7777 15.27574225181793"}]