OBJECT_NAME,OBJECT_ID,EPOCH,MEAN_MOTION,ECCENTRICITY,INCLINATION,RA_OF_ASC_NODE,ARG_OF_PERICENTER,MEAN_ANOMALY,EPHEMERIS_TYPE,CLASSIFICATION_TYPE,NORAD_CAT_ID,ELEMENT_SET_NO,REV_AT_EPOCH,BSTAR,MEAN_MOTION_DOT,MEAN_MOTION_DDOT
STARLINK-5772,2023-042AQ,2026-07-16T14:27:25.665696,15.27572411,.0000719,43.0051,36.9677,281.2238,78.8532,0,U,56024,999,18275,.26911E-4,.479E-5,0
STARLINK-5766,2023-042AR,2026-07-16T23:24:48.936960,15.27578560,.0000861,43.0024,35.4617,291.1982,68.8777,0,U,56025,999,18280,.12528E-4,.83E-6,0
STARLINK-5770,2023-042AS,2026-07-16T14:16:19.437024,15.27576316,.0001127,43.0040,36.9170,263.8079,96.2644,0,U,56026,999,18274,.17534E-4,.22E-5,0
STARLINK-5777,2023-042AT,2026-07-16T21:59:41.934048,15.27578026,.0003109,43.0085,35.0259,249.9441,110.1076,0,U,56027,999,18280,-.25743E-4,-.971E-5,0
STARLINK-5779,2023-042AU,2026-07-16T22:33:00.518112,15.27575386,.0001799,43.0064,35.1981,266.2796,93.7850,0,U,56028,999,18280,-.54824E-5,-.413E-5,0
STARLINK-5774,2023-042AV,2026-07-16T20:38:29.874336,15.27577699,.0001721,43.0060,35.4619,272.5512,87.5142,0,U,56029,999,18279,.32254E-5,-.174E-5,0
STARLINK-5781,2023-042AW,2026-07-16T21:04:25.127040,15.27566367,.0001831,43.0061,35.5934,278.0261,82.0383,0,U,56030,999,18279,-.39183E-4,-.134E-4,0
STARLINK-5785,2023-042AX,2026-07-16T20:47:45.170592,15.27575200,.0001453,43.0052,35.5120,261.0180,99.0507,0,U,56031,999,18279,.29361E-5,-.181E-5,0
STARLINK-5786,2023-042AY,2026-07-15T23:26:33.931968,15.27577956,.0001484,43.0031,40.8682,260.4744,99.5940,0,U,56032,999,18265,.15990903E-4,.178E-5,0
STARLINK-5782,2023-042BA,2026-07-16T13:45:05.243040,15.27573277,.0002008,43.0047,37.5982,261.5746,98.4879,0,U,56034,999,18274,-.6702E-5,-.447E-5,0
STARLINK-5792,2023-042BB,2026-07-16T14:53:20.074272,15.27577267,.0001363,43.0054,37.0998,268.2291,91.8405,0,U,56035,999,18275,.40343E-4,.848E-5,0
STARLINK-5790,2023-042BC,2026-07-16T21:22:56.273376,15.27567220,.0001345,42.9994,35.6764,255.8385,104.2318,0,U,56036,999,18279,-.94324E-5,-.521E-5,0
STARLINK-5758,2023-042BD,2026-07-16T13:49:29.824032,15.27577547,.0001677,43.0058,22.8692,269.6499,90.4160,0,U,56037,999,18291,.39154E-4,.815E-5,0
STARLINK-5793,2023-042BE,2026-07-16T23:21:07.276032,15.27575611,.0001096,43.0029,35.4370,242.6856,117.3884,0,U,56038,999,18280,.13498E-4,.109E-5,0
STARLINK-5795,2023-042BF,2026-07-16T14:15:23.918976,15.27573785,.0001388,43.0031,23.0006,264.5242,95.5452,0,U,56039,999,18291,.22644E-4,.361E-5,0
STARLINK-5798,2023-042BG,2026-07-16T12:46:47.326080,15.27577598,.000136,43.0025,23.3880,254.4459,105.6242,0,U,56040,999,18290,.21958E-5,-.202E-5,0
STARLINK-5800,2023-042BH,2026-07-16T19:48:46.396800,15.27568160,.0000916,43.0037,24.6939,259.3140,100.7609,0,U,56041,999,18291,.11226E-4,.47E-6,0
STARLINK-6109,2023-046B,2026-07-16T07:18:32.211072,15.27570974,.0001383,43.0021,155.0284,262.2007,97.8688,0,U,56094,999,18170,-.17776E-4,-.751E-5,0
STARLINK-6090,2023-046C,2026-07-16T05:33:16.542144,15.27574022,.0001248,43.0023,155.3422,263.8859,96.1851,0,U,56095,999,18169,.43523E-4,.936E-5,0
STARLINK-6089,2023-046D,2026-07-16T23:05:38.947776,15.27576450,.0001128,43.0017,151.3635,263.6209,96.4514,0,U,56096,999,18180,.52129E-5,-.119E-5,0
STARLINK-6077,2023-046E,2026-07-16T22:42:46.865664,15.27576941,.0001578,43.0036,104.3089,266.7131,93.3540,0,U,56097,999,18234,.13096E-4,.98E-6,0
STARLINK-6088,2023-046F,2026-07-16T05:38:49.627104,15.27575505,.000118,43.0011,155.3729,260.3857,99.6861,0,U,56098,999,18168,.26774E-4,.475E-5,0
STARLINK-6076,2023-046H,2026-07-16T08:34:11.161632,15.27575072,.0001397,43.0003,154.5699,241.6359,118.4352,0,U,56100,999,18171,.25173E-4,.431E-5,0
STARLINK-6095,2023-046J,2026-07-16T07:05:34.916064,15.27575910,.0001194,43.0025,154.9566,266.8835,93.1880,0,U,56101,999,18170,.20723E-4,.308E-5,0
STARLINK-6075,2023-046K,2026-07-16T21:35:10.369248,15.27606713,.0000977,43.0001,151.7435,209.5304,150.5493,0,U,56102,999,18179,.14349E-3,.3692E-4,0
STARLINK-6096,2023-046L,2026-07-16T13:33:18.554112,15.27578369,.0000516,42.9999,153.5403,258.1878,101.8916,0,U,56103,999,18174,.27855E-5,-.185E-5,0
STARLINK-6062,2023-046M,2026-07-16T05:37:00.369120,15.27559323,.0000925,42.9989,155.3571,290.3565,69.7187,0,U,56104,999,18169,.2549E-4,.439E-5,0
STARLINK-6066,2023-046N,2026-07-16T23:44:29.974848,15.27588867,.0001136,42.9993,151.5535,296.0861,63.9874,0,U,56105,999,18180,.42446E-3,.11439E-3,0
STARLINK-6030,2023-046Q,2026-07-16T23:55:37.305984,15.27569671,.0001577,43.0038,151.6112,285.2699,74.7978,0,U,56107,999,18180,.46077E-4,.1005E-4,0
STARLINK-6081,2023-046R,2026-07-16T21:38:53.513664,15.27574225,.000083,43.0014,151.7557,270.2979,89.7777,0,U,56108,999,18179,.27871E-5,-.185E-5,0
